HIMAWARI-8              
1 40267U 14060A   24037.81970124 -.00000267  00000+0  00000+0 0  9992
2 40267   0.0517 250.1727 0000529  78.9900 243.0127  1.00270149 34120
